{"type":"Feature","properties":{"MUN":"LOCH ARBOUR VILLAGE","COUNTY":"MONMOUTH","MUN_LABEL":"Loch Arbour Village","MUN_TYPE":"Village","NAME":"Loch Arbour Village","GNIS_NAME":"Village of Loch Arbour"},"geometry":{"type":"Polygon","coordinates":[[[-73.9964371,40.233302],[-73.9957261,40.2331901],[-73.9957264,40.233151],[-73.9957515,40.2330376],[-73.9957913,40.2329205],[-73.9958801,40.2327292],[-73.9959925,40.2324635],[-73.9960795,40.2321959],[-73.9960948,40.2320991],[-73.9961484,40.231917],[-73.996177,40.2316547],[-73.9961554,40.2314647],[-73.9961389,40.2313921],[-73.9961232,40.2312152],[-73.9961048,40.2310848],[-73.9960615,40.2310251],[-73.9959986,40.2309876],[-73.9959649,40.2309613],[-73.9959264,40.2309053],[-73.9958774,40.230799],[-73.9958704,40.2307636],[-73.9958707,40.2307208],[-73.9958906,40.2306576],[-73.995918,40.2305703],[-73.9959183,40.23052],[-73.9959075,40.2304241],[-73.995908,40.2304238],[-73.9959796,40.2304042],[-73.9960251,40.2303957],[-73.9960868,40.2303985],[-73.9977353,40.2306569],[-74.0000015,40.2307142],[-74.0004907,40.2307457],[-74.0011477,40.2308494],[-74.0019577,40.2310041],[-74.00279,40.2311253],[-74.0037105,40.2311629],[-74.0046967,40.2312175],[-74.0052142,40.2312522],[-74.0052398,40.2312579],[-74.0053802,40.2312893],[-74.0055934,40.2313813],[-74.005972,40.2315741],[-74.0063149,40.231794],[-74.0066459,40.2320139],[-74.00693,40.2321426],[-74.0069975,40.2321614],[-74.0070465,40.232203],[-74.0071829,40.2322918],[-74.0073413,40.2323765],[-74.0075846,40.232474],[-74.0077176,40.2325065],[-74.007839,40.2325363],[-74.0078611,40.2325417],[-74.0078716,40.2325434],[-74.0080097,40.2325667],[-74.0081026,40.2325823],[-74.0082841,40.2326433],[-74.0083254,40.2326658],[-74.0083953,40.232704],[-74.0084103,40.2327144],[-74.0085432,40.232807],[-74.008592,40.2328374],[-74.008653,40.2328569],[-74.0086826,40.2328845],[-74.0087105,40.2329132],[-74.0087366,40.2329428],[-74.0087609,40.2329732],[-74.0087834,40.2330045],[-74.008804,40.2330366],[-74.0088226,40.2330694],[-74.0088392,40.2331027],[-74.0088537,40.2331366],[-74.0088662,40.233171],[-74.0088766,40.2332058],[-74.0088849,40.2332409],[-74.0088911,40.2332763],[-74.0088952,40.2333119],[-74.0088971,40.2333475],[-74.0088968,40.2333832],[-74.0088944,40.2334189],[-74.001864,40.2339337],[-74.0008667,40.2340067],[-74.0008017,40.2339964],[-74.0006856,40.2339781],[-74.0002508,40.2339095],[-73.99845,40.2336189],[-73.9983688,40.2336059],[-73.9968616,40.2333688],[-73.9964371,40.233302]]]}}
