{"type":"FeatureCollection","name":"loch_arbour_village_road_centerlines","metadata":{"source":"NJOGIS NG911 Road Centerlines (Tran_road)","url":"https://services2.arcgis.com/XVOqAjTOJ5P6ngMu/arcgis/rest/services/Tran_road/FeatureServer/0","query_url":"https://services2.arcgis.com/XVOqAjTOJ5P6ngMu/arcgis/rest/services/Tran_road/FeatureServer/0/query","retrieved_at_utc":"2026-09-04T20:05:24.513766+00:00","source_last_edit_date":1785341586960,"out_sr":4326,"query_envelope_wgs84":[-74.0088971,40.2303957,-73.9957261,40.2340067],"spatial_relationship":"esriSpatialRelIntersects","boundary_file":"loch_arbour_village_boundary.geojson","boundary_sha256":"36939c0f07ed5859fe579c7c90869c32ca79de9ec1450b4bf56dd77ad23b88fe","fields":["OBJECTID","PRIMENAME","ELEVTYP_F","ELEVTYP_T"],"feature_count":55,"complete_objectid_inventory_verified":true,"municipal_clipping":"Envelope selection only; clip against the actual municipal boundary in the application."},"features":[{"type":"Feature","id":1557,"properties":{"OBJECTID":1557,"PRIMENAME":"Edgemont Avenue","ELEVTYP_F":0,"ELEVTYP_T":0},"geometry":{"type":"LineString","coordinates":[[-73.9979381719202,40.2314977309907],[-73.9977260035613,40.2314710873631],[-73.9974899308004,40.2314414295045],[-73.997421484665,40.2314459643971]]}},{"type":"Feature","id":8286,"properties":{"OBJECTID":8286,"PRIMENAME":"Edgemont Drive","ELEVTYP_F":0,"ELEVTYP_T":0},"geometry":{"type":"LineString","coordinates":[[-74.001088214505,40.2316709058335],[-74.0011599752661,40.2317027853683],[-74.001271274139,40.2317890536645],[-74.0014447514443,40.2318755906058],[-74.0016246377901,40.2319383250035],[-74.0018294136345,40.2319916407865],[-74.0019117218834,40.2320015574241],[-74.0020345085944,40.2320163523568],[-74.0022457271844,40.2320410889986],[-74.0023762818138,40.2320463996139],[-74.002519369698,40.2320327121183],[-74.0027436109331,40.2319860186863],[-74.0030675610799,40.2319063976142],[-74.003238241313,40.2318744657688],[-74.003266804506,40.231869121303],[-74.0035841048041,40.2318514308172],[-74.0036601260381,40.2318494511401]]}},{"type":"Feature","id":8789,"properties":{"OBJECTID":8789,"PRIMENAME":"Norwood Avenue","ELEVTYP_F":0,"ELEVTYP_T":0},"geometry":{"type":"LineString","coordinates":[[-74.0008016786728,40.2339964004417],[-74.000791989464,40.2340818455446]]}},{"type":"Feature","id":18435,"properties":{"OBJECTID":18435,"PRIMENAME":"Main Street","ELEVTYP_F":0,"ELEVTYP_T":0},"geometry":{"type":"LineString","coordinates":[[-74.0079191224544,40.2322174358954],[-74.0078719005054,40.2323339905551]]}},{"type":"Feature","id":49115,"properties":{"OBJECTID":49115,"PRIMENAME":"Euclid Avenue","ELEVTYP_F":0,"ELEVTYP_T":0},"geometry":{"type":"LineString","coordinates":[[-74.0038084129157,40.2330764413058],[-74.0030772707582,40.2331312840968],[-74.0024675167862,40.2331763495085],[-74.0022994622211,40.2331947337381],[-74.0021750679316,40.2331988930354],[-74.0020569752523,40.2331936907465],[-74.0018768071931,40.2331690594787],[-74.0010196614652,40.2330271444694],[-74.0009117586304,40.2330098232219]]}},{"type":"Feature","id":52512,"properties":{"OBJECTID":52512,"PRIMENAME":"Boardwalk","ELEVTYP_F":0,"ELEVTYP_T":0},"geometry":{"type":"LineString","coordinates":[[-73.9975983581406,40.2306354157005],[-73.9977246770039,40.2310737076695],[-73.9977790737025,40.2312836805403],[-73.9978651590851,40.2314174727396],[-73.9979381719202,40.2314977309907]]}},{"type":"Feature","id":53266,"properties":{"OBJECTID":53266,"PRIMENAME":"Norwood Avenue","ELEVTYP_F":0,"ELEVTYP_T":0},"geometry":{"type":"LineString","coordinates":[[-74.0015196480481,40.2309204356001],[-74.001492536967,40.2309665717583],[-74.0012989176393,40.2313017554105],[-74.0011665637342,40.231537083594]]}},{"type":"Feature","id":55306,"properties":{"OBJECTID":55306,"PRIMENAME":"Boardwalk","ELEVTYP_F":0,"ELEVTYP_T":0},"geometry":{"type":"LineString","coordinates":[[-73.9975722667311,40.2304918547919],[-73.9975912728858,40.2306108300236],[-73.9975983581406,40.2306354157005]]}},{"type":"Feature","id":58035,"properties":{"OBJECTID":58035,"PRIMENAME":"Deal Lake Drive","ELEVTYP_F":0,"ELEVTYP_T":0},"geometry":{"type":"LineString","coordinates":[[-74.0058376798219,40.2304080729576],[-74.005651979625,40.2304160641749],[-74.0052834677098,40.2304287922376],[-74.0050502417491,40.2304313644678],[-74.0049010564138,40.2304271570543],[-74.0047471947684,40.2304157655213],[-74.0045421694704,40.2303970160781],[-74.0042299938158,40.2303563678363],[-74.0039457379655,40.2303229753147],[-74.0037546709151,40.2303007158509],[-74.0036195596597,40.2302822654124],[-74.0035204234575,40.2302763497289]]}},{"type":"Feature","id":58796,"properties":{"OBJECTID":58796,"PRIMENAME":"Edgemont Drive","ELEVTYP_F":0,"ELEVTYP_T":0},"geometry":{"type":"LineString","coordinates":[[-74.0070950852929,40.2328297695311],[-74.0074874703152,40.2329547567222],[-74.0076156206037,40.2329955744542]]}},{"type":"Feature","id":69832,"properties":{"OBJECTID":69832,"PRIMENAME":"Main Street","ELEVTYP_F":0,"ELEVTYP_T":0},"geometry":{"type":"LineString","coordinates":[[-74.0078040083318,40.2325276995071],[-74.007796602138,40.2325460965854],[-74.007697796567,40.2327914876423],[-74.0076156206037,40.2329955744542]]}},{"type":"Feature","id":82230,"properties":{"OBJECTID":82230,"PRIMENAME":"Page Avenue","ELEVTYP_F":0,"ELEVTYP_T":0},"geometry":{"type":"LineString","coordinates":[[-74.0049187399048,40.2337100398704],[-74.0049488054435,40.2335944929727],[-74.0050771214666,40.2330517038006],[-74.0050940842022,40.2329799606584]]}},{"type":"Feature","id":82803,"properties":{"OBJECTID":82803,"PRIMENAME":"Elberon Avenue","ELEVTYP_F":0,"ELEVTYP_T":0},"geometry":{"type":"LineString","coordinates":[[-73.9964370689336,40.2333019713469],[-73.9968616041336,40.233368769319]]}},{"type":"Feature","id":84894,"properties":{"OBJECTID":84894,"PRIMENAME":"Main Street","ELEVTYP_F":0,"ELEVTYP_T":0},"geometry":{"type":"LineString","coordinates":[[-74.0074120969527,40.2335274464577],[-74.0073706369574,40.2336357923991],[-74.0072836245295,40.233878925735]]}},{"type":"Feature","id":87725,"properties":{"OBJECTID":87725,"PRIMENAME":"Edgemont Drive","ELEVTYP_F":0,"ELEVTYP_T":0},"geometry":{"type":"LineString","coordinates":[[-73.9989438855729,40.2318606182289],[-73.999144000392,40.2318656571769],[-73.9993928558213,40.2318524302975],[-73.9997600460644,40.2318111379954],[-74.0002829981331,40.2317276075077],[-74.0007250408692,40.2316580021523],[-74.0009054845999,40.2316444777878],[-74.0009924855023,40.2316496291631],[-74.001073219047,40.2316642798246],[-74.001088214505,40.2316709058335]]}},{"type":"Feature","id":90747,"properties":{"OBJECTID":90747,"PRIMENAME":"Norwood Avenue South","ELEVTYP_F":0,"ELEVTYP_T":0},"geometry":{"type":"LineString","coordinates":[[-74.001088214505,40.2316709058335],[-74.0010768240109,40.231690430056],[-74.0010529136061,40.2317760886152],[-74.0010381127827,40.2318796854204],[-74.0010231998575,40.2320083176132],[-74.0009660523679,40.2325168469745],[-74.000953338825,40.2326299791215],[-74.0009117586304,40.2330098232219]]}},{"type":"Feature","id":115714,"properties":{"OBJECTID":115714,"PRIMENAME":"Emory Street","ELEVTYP_F":0,"ELEVTYP_T":0},"geometry":{"type":"LineString","coordinates":[[-74.0057223084999,40.2295905955],[-74.0058215344971,40.2302936641457],[-74.0058376798219,40.2304080729576]]}},{"type":"Feature","id":131069,"properties":{"OBJECTID":131069,"PRIMENAME":"Ocean Place","ELEVTYP_F":0,"ELEVTYP_T":0},"geometry":{"type":"LineString","coordinates":[[-73.9971282509281,40.2323891907861],[-73.997098454871,40.2325001064904],[-73.9970389675397,40.2327215537391],[-73.9969111171482,40.233188073687],[-73.9968616041336,40.233368769319]]}},{"type":"Feature","id":149156,"properties":{"OBJECTID":149156,"PRIMENAME":"Euclid Avenue","ELEVTYP_F":0,"ELEVTYP_T":0},"geometry":{"type":"LineString","coordinates":[[-74.0050940842022,40.2329799606584],[-74.0038084129157,40.2330764413058]]}},{"type":"Feature","id":149721,"properties":{"OBJECTID":149721,"PRIMENAME":"Norwood Avenue South","ELEVTYP_F":0,"ELEVTYP_T":0},"geometry":{"type":"LineString","coordinates":[[-74.0009117586304,40.2330098232219],[-74.0008833464415,40.2332695101069],[-74.0008016786728,40.2339964004417]]}},{"type":"Feature","id":154419,"properties":{"OBJECTID":154419,"PRIMENAME":"Hume Street","ELEVTYP_F":0,"ELEVTYP_T":0},"geometry":{"type":"LineString","coordinates":[[-74.0048264970778,40.2340645318768],[-74.0049697113293,40.234053697021],[-74.0061394282042,40.233965350706],[-74.0070602768367,40.2338957908142],[-74.0072836245295,40.233878925735]]}},{"type":"Feature","id":155170,"properties":{"OBJECTID":155170,"PRIMENAME":"Evergreen Place","ELEVTYP_F":0,"ELEVTYP_T":0},"geometry":{"type":"LineString","coordinates":[[-74.0038084129157,40.2330764413058],[-74.0038024687976,40.2330271934086],[-74.0037422217272,40.2325287836449],[-74.0036675898157,40.2319113608613],[-74.0036601260381,40.2318494511401]]}},{"type":"Feature","id":195372,"properties":{"OBJECTID":195372,"PRIMENAME":"Euclid Avenue","ELEVTYP_F":0,"ELEVTYP_T":0},"geometry":{"type":"LineString","coordinates":[[-74.0009117586304,40.2330098232219],[-73.9996469838965,40.2328067053839],[-73.9987193725962,40.2326529653624]]}},{"type":"Feature","id":200416,"properties":{"OBJECTID":200416,"PRIMENAME":"Ocean Avenue","ELEVTYP_F":0,"ELEVTYP_T":0},"geometry":{"type":"LineString","coordinates":[[-73.9984499819139,40.2336189202677],[-73.9982937403701,40.234179199761],[-73.9982170080263,40.2344543570776],[-73.9981272982514,40.2347817778449]]}},{"type":"Feature","id":210856,"properties":{"OBJECTID":210856,"PRIMENAME":"Main Street","ELEVTYP_F":0,"ELEVTYP_T":0},"geometry":{"type":"LineString","coordinates":[[-74.0078719005054,40.2323339905551],[-74.0078337827824,40.2324280726038],[-74.0078192908909,40.2324804992256],[-74.0078110890095,40.2325101134469],[-74.0078040083318,40.2325276995071]]}},{"type":"Feature","id":213821,"properties":{"OBJECTID":213821,"PRIMENAME":"Main Street","ELEVTYP_F":0,"ELEVTYP_T":0},"geometry":{"type":"LineString","coordinates":[[-74.0076156206037,40.2329955744542],[-74.0074120969527,40.2335274464577]]}},{"type":"Feature","id":230199,"properties":{"OBJECTID":230199,"PRIMENAME":"Ocean Avenue South","ELEVTYP_F":0,"ELEVTYP_T":0},"geometry":{"type":"LineString","coordinates":[[-73.9989438855729,40.2318606182289],[-73.9988610432848,40.2321319281054],[-73.9987589891013,40.2325073097692],[-73.9987588030743,40.2325079952727],[-73.9987193725962,40.2326529653624]]}},{"type":"Feature","id":237823,"properties":{"OBJECTID":237823,"PRIMENAME":"Elberon Avenue","ELEVTYP_F":0,"ELEVTYP_T":0},"geometry":{"type":"LineString","coordinates":[[-73.9968616041336,40.233368769319],[-73.99836884005,40.2336058574885],[-73.9984499819139,40.2336189202677]]}},{"type":"Feature","id":240891,"properties":{"OBJECTID":240891,"PRIMENAME":"Ocean Avenue South","ELEVTYP_F":0,"ELEVTYP_T":0},"geometry":{"type":"LineString","coordinates":[[-73.9987193725962,40.2326529653624],[-73.9984499819139,40.2336189202677]]}},{"type":"Feature","id":242422,"properties":{"OBJECTID":242422,"PRIMENAME":"Elberon Avenue","ELEVTYP_F":0,"ELEVTYP_T":0},"geometry":{"type":"LineString","coordinates":[[-73.9984499819139,40.2336189202677],[-74.0002508064796,40.2339094972593],[-74.0006856153844,40.2339780827735],[-74.0008016786728,40.2339964004417]]}},{"type":"Feature","id":249660,"properties":{"OBJECTID":249660,"PRIMENAME":"Euclid Avenue","ELEVTYP_F":0,"ELEVTYP_T":0},"geometry":{"type":"LineString","coordinates":[[-73.9987193725962,40.2326529653624],[-73.9978160651061,40.2325032223556],[-73.9972557520382,40.2324103339603],[-73.9971282509281,40.2323891907861]]}},{"type":"Feature","id":254993,"properties":{"OBJECTID":254993,"PRIMENAME":"Page Avenue","ELEVTYP_F":0,"ELEVTYP_T":0},"geometry":{"type":"LineString","coordinates":[[-74.0048264970778,40.2340645318768],[-74.0049187399048,40.2337100398704]]}},{"type":"Feature","id":261040,"properties":{"OBJECTID":261040,"PRIMENAME":"Park Avenue","ELEVTYP_F":0,"ELEVTYP_T":0},"geometry":{"type":"LineString","coordinates":[[-74.0019295013084,40.2302054679027],[-74.0018710437264,40.2303114069465],[-74.0017711999746,40.2304923502129],[-74.0015196480481,40.2309204356001]]}},{"type":"Feature","id":272451,"properties":{"OBJECTID":272451,"PRIMENAME":"Boardwalk","ELEVTYP_F":0,"ELEVTYP_T":0},"geometry":{"type":"LineString","coordinates":[[-73.9975968007997,40.2301438880773],[-73.9975882461831,40.2301818726615],[-73.9975563120022,40.2302961279326],[-73.997560553923,40.2304001591368],[-73.9975615585439,40.2304248210965],[-73.9975722667311,40.2304918547919]]}},{"type":"Feature","id":275062,"properties":{"OBJECTID":275062,"PRIMENAME":"Grassmere Avenue","ELEVTYP_F":0,"ELEVTYP_T":0},"geometry":{"type":"LineString","coordinates":[[-74.0086663349003,40.232117910719],[-74.0097045591229,40.2323526666151],[-74.0097305597282,40.2323581420368],[-74.0098920348947,40.232392141648]]}},{"type":"Feature","id":288257,"properties":{"OBJECTID":288257,"PRIMENAME":"Deal Lake Drive","ELEVTYP_F":0,"ELEVTYP_T":0},"geometry":{"type":"LineString","coordinates":[[-74.006966536444,40.2298604611328],[-74.0068729509493,40.229899374829],[-74.0068499358981,40.2299098299042],[-74.0067793745194,40.229941883957],[-74.0067044063005,40.2299916101185],[-74.0066058875705,40.2300734104263],[-74.006446395332,40.2302013999396],[-74.0063526261347,40.2302653483137],[-74.00626837186,40.2303114661335],[-74.0061656095376,40.2303609688961],[-74.0061653937398,40.2303610724529],[-74.0060812939872,40.2303857233589],[-74.0059832062184,40.2304031758004],[-74.0058376798219,40.2304080729576]]}},{"type":"Feature","id":289596,"properties":{"OBJECTID":289596,"PRIMENAME":"Euclid Avenue","ELEVTYP_F":0,"ELEVTYP_T":0},"geometry":{"type":"LineString","coordinates":[[-74.0070950852929,40.2328297695311],[-74.0069478322012,40.23284082039],[-74.0067420056045,40.2328562670952],[-74.0061471604633,40.2329009191734],[-74.0060014014913,40.2329118599171],[-74.0050940842022,40.2329799606584]]}},{"type":"Feature","id":310154,"properties":{"OBJECTID":310154,"PRIMENAME":"Main Street","ELEVTYP_F":0,"ELEVTYP_T":0},"geometry":{"type":"LineString","coordinates":[[-74.0072836245295,40.233878925735],[-74.0068560087961,40.235074605649]]}},{"type":"Feature","id":311822,"properties":{"OBJECTID":311822,"PRIMENAME":"Edgemont Drive","ELEVTYP_F":0,"ELEVTYP_T":0},"geometry":{"type":"LineString","coordinates":[[-74.0036601260381,40.2318494511401],[-74.0039013356399,40.2318432376116],[-74.0042184250648,40.2318445963194],[-74.0044484450486,40.2318551347855],[-74.0047653268528,40.2318898464571],[-74.0052125912238,40.2319537190429],[-74.0055417642273,40.2320075599905],[-74.0056968307796,40.2320606286393],[-74.0058330283239,40.2321469997893],[-74.0059256396344,40.2322379600679],[-74.0060181809991,40.2323384193214],[-74.0061169880015,40.2324294067887],[-74.0061504241883,40.2324516140334],[-74.0062469916261,40.2325157501169],[-74.0062990917747,40.2325397184861],[-74.0064143147095,40.2325927269899],[-74.0066532873063,40.2326878314755],[-74.0066685378724,40.2326939021366],[-74.0069505026259,40.2327837167905],[-74.0070950852929,40.2328297695311]]}},{"type":"Feature","id":313076,"properties":{"OBJECTID":313076,"PRIMENAME":"Norwood Avenue","ELEVTYP_F":0,"ELEVTYP_T":0},"geometry":{"type":"LineString","coordinates":[[-74.0011665637342,40.231537083594],[-74.001088214505,40.2316709058335]]}},{"type":"Feature","id":318190,"properties":{"OBJECTID":318190,"PRIMENAME":"Main Street","ELEVTYP_F":0,"ELEVTYP_T":0},"geometry":{"type":"LineString","coordinates":[[-74.0084001491352,40.2299789886925],[-74.0082360731921,40.2307025607723],[-74.0081757344595,40.2309686446933],[-74.0081116514623,40.2312504599453],[-74.008082580982,40.2313783060762]]}},{"type":"Feature","id":321693,"properties":{"OBJECTID":321693,"PRIMENAME":"Edgemont Drive","ELEVTYP_F":0,"ELEVTYP_T":0},"geometry":{"type":"LineString","coordinates":[[-73.9979381719202,40.2314977309907],[-73.9979391675433,40.2314988062041],[-73.9980875357608,40.231584826746],[-73.9982799174363,40.2316718611091],[-73.9986148593982,40.2317876794049],[-73.9988171457618,40.2318430756774],[-73.9989438855729,40.2318606182289]]}},{"type":"Feature","id":327423,"properties":{"OBJECTID":327423,"PRIMENAME":"Ocean Place","ELEVTYP_F":0,"ELEVTYP_T":0},"geometry":{"type":"LineString","coordinates":[[-73.997421484665,40.2314459643971],[-73.9973901853399,40.2314743787644],[-73.9973586729309,40.2315314532616],[-73.9971282509281,40.2323891907861]]}},{"type":"Feature","id":351047,"properties":{"OBJECTID":351047,"PRIMENAME":"Main Street","ELEVTYP_F":0,"ELEVTYP_T":0},"geometry":{"type":"LineString","coordinates":[[-74.0081720102894,40.2318299768661],[-74.0081400136009,40.231796843106],[-74.008113020939,40.2317849512524],[-74.0080870665631,40.2317781696946],[-74.0080489856603,40.2317740268849],[-74.0080023325,40.2317764918543],[-74.0079484159898,40.2317927340737],[-74.007881091769,40.231810511642]]}},{"type":"Feature","id":351383,"properties":{"OBJECTID":351383,"PRIMENAME":"Main Street","ELEVTYP_F":0,"ELEVTYP_T":0},"geometry":{"type":"LineString","coordinates":[[-74.0078609261123,40.2319639673429],[-74.0078677236378,40.2319947423631]]}},{"type":"Feature","id":353055,"properties":{"OBJECTID":353055,"PRIMENAME":"Grassmere Avenue","ELEVTYP_F":0,"ELEVTYP_T":0},"geometry":{"type":"LineString","coordinates":[[-74.0081017506866,40.232085205112],[-74.0081916693753,40.2320882505095],[-74.0082786071359,40.2320922153645],[-74.0084620614666,40.2321032073017],[-74.0086663349003,40.232117910719]]}},{"type":"Feature","id":356874,"properties":{"OBJECTID":356874,"PRIMENAME":"Main Street","ELEVTYP_F":0,"ELEVTYP_T":0},"geometry":{"type":"LineString","coordinates":[[-74.0078677236378,40.2319947423631],[-74.0078770379132,40.2320192423193],[-74.0078914932769,40.2320362966923],[-74.007918741612,40.2320573593889],[-74.0079492461819,40.2320690185339],[-74.0079906480321,40.2320795170999],[-74.0080353959489,40.2320829740378],[-74.0081017506866,40.232085205112]]}},{"type":"Feature","id":371591,"properties":{"OBJECTID":371591,"PRIMENAME":"Main Street","ELEVTYP_F":0,"ELEVTYP_T":0},"geometry":{"type":"LineString","coordinates":[[-74.0079191224544,40.2322174358954],[-74.0079758755274,40.2322002996776],[-74.0080196171785,40.2321697115834],[-74.0080785888401,40.2321132732734],[-74.0081017506866,40.232085205112]]}},{"type":"Feature","id":373355,"properties":{"OBJECTID":373355,"PRIMENAME":"Main Street","ELEVTYP_F":0,"ELEVTYP_T":0},"geometry":{"type":"LineString","coordinates":[[-74.0081017506866,40.232085205112],[-74.0081252033926,40.2320567265764],[-74.0081596340121,40.2319860461346],[-74.0081785263324,40.231929409526],[-74.0081850974653,40.2318727484788],[-74.0081720102894,40.2318299768661]]}},{"type":"Feature","id":376694,"properties":{"OBJECTID":376694,"PRIMENAME":"Main Street","ELEVTYP_F":0,"ELEVTYP_T":0},"geometry":{"type":"LineString","coordinates":[[-74.008082580982,40.2313783060762],[-74.0080033972984,40.2315254161392],[-74.0079452456638,40.231656638603],[-74.007881091769,40.231810511642]]}},{"type":"Feature","id":377353,"properties":{"OBJECTID":377353,"PRIMENAME":"Grassmere Avenue","ELEVTYP_F":0,"ELEVTYP_T":0},"geometry":{"type":"LineString","coordinates":[[-74.0083060007701,40.2319268159127],[-74.0082854914267,40.2319129530589],[-74.0082147998034,40.2318664781419],[-74.0081720102894,40.2318299768661]]}},{"type":"Feature","id":378810,"properties":{"OBJECTID":378810,"PRIMENAME":"Main Street","ELEVTYP_F":0,"ELEVTYP_T":0},"geometry":{"type":"LineString","coordinates":[[-74.0078609261123,40.2319639673429],[-74.0078835482228,40.2321095061636],[-74.0078870216887,40.2321788660914],[-74.0079191224544,40.2322174358954]]}},{"type":"Feature","id":381657,"properties":{"OBJECTID":381657,"PRIMENAME":"Grassmere Avenue","ELEVTYP_F":0,"ELEVTYP_T":0},"geometry":{"type":"LineString","coordinates":[[-74.0086663349003,40.232117910719],[-74.0084806110732,40.2320295762786],[-74.0083861857965,40.2319810237066],[-74.0083060007701,40.2319268159127]]}},{"type":"Feature","id":396900,"properties":{"OBJECTID":396900,"PRIMENAME":"Main Street","ELEVTYP_F":0,"ELEVTYP_T":0},"geometry":{"type":"LineString","coordinates":[[-74.0081720102894,40.2318299768661],[-74.0081529194245,40.2317902816407],[-74.0081405701668,40.2317413516869],[-74.0081404193343,40.2317407593068],[-74.0081167485089,40.231641033974],[-74.0081055493781,40.2315304347301],[-74.008082580982,40.2313783060762]]}},{"type":"Feature","id":401093,"properties":{"OBJECTID":401093,"PRIMENAME":"Main Street","ELEVTYP_F":0,"ELEVTYP_T":0},"geometry":{"type":"LineString","coordinates":[[-74.007881091769,40.231810511642],[-74.0078622762808,40.2319209553603],[-74.0078595467724,40.2319467208835],[-74.0078609261123,40.2319639673429]]}}]}
